[{"OBJECT_NAME":"KUIPER-00152","OBJECT_ID":"2025-217L","EPOCH":"2026-03-09T02:08:04.930944","MEAN_MOTION":14.79907018,"ECCENTRICITY":5.576e-5,"INCLINATION":51.902,"RA_OF_ASC_NODE":33.2511,"ARG_OF_PERICENTER":92.7348,"MEAN_ANOMALY":267.3678,"EPHEMERIS_TYPE":0,"CLASSIFICATION_TYPE":"U","NORAD_CAT_ID":65772,"ELEMENT_SET_NO":999,"REV_AT_EPOCH":2496,"BSTAR":0.00052321714,"MEAN_MOTION_DOT":3.767e-5,"MEAN_MOTION_DDOT":0},{"OBJECT_NAME":"DMSP 5D-2 F11 DEB","OBJECT_ID":"1991-082AN","EPOCH":"2026-03-09T12:05:34.155456","MEAN_MOTION":14.78473163,"ECCENTRICITY":0.00306385,"INCLINATION":98.5696,"RA_OF_ASC_NODE":311.9477,"ARG_OF_PERICENTER":76.3571,"MEAN_ANOMALY":44.1543,"EPHEMERIS_TYPE":0,"CLASSIFICATION_TYPE":"U","NORAD_CAT_ID":28325,"ELEMENT_SET_NO":999,"REV_AT_EPOCH":12809,"BSTAR":0.0048251966,"MEAN_MOTION_DOT":0.00035597,"MEAN_MOTION_DDOT":0}]
